<?xml version='1.0' encoding='UTF-8'?>
<kml xmlns="http://www.opengis.net/kml/2.2"><Document><Folder><name>39:05:030616:142</name><Placemark><Style><LineStyle><color>ff0000ff</color></LineStyle><PolyStyle><fill>0</fill></PolyStyle></Style><MultiGeometry><Polygon><outerBoundaryIs><LinearRing><coordinates>20.02818204357816,54.813414994464246 20.028923344207648,54.813041050073544 20.03513884728611,54.81669263286389 20.034740006889677,54.81694492373402 20.034521470851338,54.817139393483785 20.02818204357816,54.813414994464246 20.02818204357816,54.813414994464246</coordinates></LinearRing></outerBoundaryIs><innerBoundaryIs><LinearRing><coordinates>20.034847840426618,54.81657505306523 20.034901376162736,54.816601191899395 20.034931346380215,54.81658051888059 20.034877804370947,54.81655455966596 20.034847840426618,54.81657505306523 20.034847840426618,54.81657505306523</coordinates></LinearRing></innerBoundaryIs></Polygon></MultiGeometry></Placemark></Folder></Document></kml>