<?xml version='1.0' encoding='UTF-8'?>
<kml xmlns="http://www.opengis.net/kml/2.2"><Document><Folder><name>39:05:030616:112</name><Placemark><Style><LineStyle><color>ff0000ff</color></LineStyle><PolyStyle><fill>0</fill></PolyStyle></Style><MultiGeometry><Polygon><outerBoundaryIs><LinearRing><coordinates>20.01829261909247,54.81358871580433 20.018618963743023,54.81340893279337 20.01909238524355,54.81312136835576 20.019312139915026,54.81298632461899 20.019525683024163,54.81284213341551 20.01978496138758,54.812601004448865 20.02021634942729,54.81214655643622 20.020707265918077,54.81165354802606 20.021555178150006,54.81087347940067 20.02241340772092,54.81013512229019 20.023256201019944,54.80932632276562 20.02407203333733,54.80862402048179 20.024656638665384,54.80920029568349 20.026040732117906,54.80996751978082 20.02703545118315,54.8104363851789 20.026464076895095,54.81072525674266 20.02562924706898,54.810804850423196 20.025147451717064,54.81135449487689 20.02451192699906,54.811754814227 20.02122431382156,54.81296249789645 20.02198834186355,54.812986495139285 20.022284998428102,54.81322878081123 20.02214038535796,54.813769533267084 20.02381400079275,54.814027201713955 20.02555250036782,54.81467398681633 20.024133984951106,54.816076079463286 20.02343438840009,54.816610130915045 20.021227840535786,54.81540951228119 20.021093011414816,54.81521872158717 20.020793537293414,54.81503398738898 20.020764674360517,54.81502753831184 20.02061269801802,54.814939142394486 20.020464262685042,54.814979528758684 20.020402288343643,54.81501203944101 20.018066657383937,54.81371434110551 20.01829261909247,54.81358871580433 20.01829261909247,54.81358871580433</coordinates></LinearRing></outerBoundaryIs></Polygon></MultiGeometry></Placemark></Folder></Document></kml>