<?xml version='1.0' encoding='UTF-8'?>
<kml xmlns="http://www.opengis.net/kml/2.2"><Document><Folder><name>39:05:030616:141</name><Placemark><Style><LineStyle><color>ff0000ff</color></LineStyle><PolyStyle><fill>0</fill></PolyStyle></Style><MultiGeometry><Polygon><outerBoundaryIs><LinearRing><coordinates>20.03398820578907,54.817613994642194 20.02743872893966,54.813766181265464 20.02776585795252,54.81362492442445 20.02818204357816,54.813414994464246 20.034521470851338,54.817139393483785 20.03398820578907,54.817613994642194 20.03398820578907,54.817613994642194</coordinates></LinearRing></outerBoundaryIs><innerBoundaryIs><LinearRing><coordinates>20.0340861528322,54.817108980023974 20.03418569595952,54.8171496710004 20.0342127531154,54.8171277962506 20.03411321629811,54.817086925690035 20.0340861528322,54.817108980023974 20.0340861528322,54.817108980023974</coordinates></LinearRing></innerBoundaryIs></Polygon></MultiGeometry></Placemark></Folder></Document></kml>