<?xml version='1.0' encoding='UTF-8'?>
<kml xmlns="http://www.opengis.net/kml/2.2"><Document><Folder><name>39:05:030616:111</name><Placemark><Style><LineStyle><color>ff0000ff</color></LineStyle><PolyStyle><fill>0</fill></PolyStyle></Style><MultiGeometry><Polygon><outerBoundaryIs><LinearRing><coordinates>20.028046994772538,54.80866914211986 20.027774171307726,54.80845679694197 20.02819167522504,54.80828308807335 20.028484184313292,54.80849296774474 20.028046994772538,54.80866914211986 20.028046994772538,54.80866914211986</coordinates></LinearRing></outerBoundaryIs></Polygon></MultiGeometry></Placemark></Folder></Document></kml>