{"id": 103777849, "type": "Feature", "geometry": {"type": "Polygon", "coordinates": [[[20.01829261909247, 54.81358871580433], [20.018618963743023, 54.81340893279337], [20.01909238524355, 54.81312136835576], [20.019312139915026, 54.81298632461899], [20.019525683024163, 54.81284213341551], [20.01978496138758, 54.812601004448865], [20.02021634942729, 54.81214655643622], [20.020707265918077, 54.81165354802606], [20.021555178150006, 54.81087347940067], [20.02241340772092, 54.81013512229019], [20.023256201019944, 54.80932632276562], [20.02407203333733, 54.80862402048179], [20.024656638665384, 54.80920029568349], [20.026040732117906, 54.80996751978082], [20.02703545118315, 54.8104363851789], [20.026464076895095, 54.81072525674266], [20.02562924706898, 54.810804850423196], [20.025147451717064, 54.81135449487689], [20.02451192699906, 54.811754814227], [20.02122431382156, 54.81296249789645], [20.02198834186355, 54.812986495139285], [20.022284998428102, 54.81322878081123], [20.02214038535796, 54.813769533267084], [20.02381400079275, 54.814027201713955], [20.02555250036782, 54.81467398681633], [20.024133984951106, 54.816076079463286], [20.02343438840009, 54.816610130915045], [20.021227840535786, 54.81540951228119], [20.021093011414816, 54.81521872158717], [20.020793537293414, 54.81503398738898], [20.020764674360517, 54.81502753831184], [20.02061269801802, 54.814939142394486], [20.020464262685042, 54.814979528758684], [20.020402288343643, 54.81501203944101], [20.018066657383937, 54.81371434110551], [20.01829261909247, 54.81358871580433]]], "crs": {"type": "name", "properties": {"name": "EPSG:3857"}}}, "properties": {"cadastralDistrictsCode": 39, "category": 36368, "categoryName": "\u0417\u0435\u043c\u0435\u043b\u044c\u043d\u044b\u0435 \u0443\u0447\u0430\u0441\u0442\u043a\u0438 \u0415\u0413\u0420\u041d", "descr": "39:05:030616:112", "externalKey": "39:05:030616:112", "interactionId": 103712157, "label": "39:05:030616:112", "options": {"area": null, "cad_num": "39:05:030616:112", "cost_application_date": "2023-01-01", "cost_approvement_date": "", "cost_determination_date": "2022-01-01", "cost_index": 5.45, "cost_registration_date": "2022-12-31", "cost_value": 1025145, "declared_area": null, "determination_couse": "\u0410\u043a\u0442 \u043e\u0431 \u0443\u0442\u0432\u0435\u0440\u0436\u0434\u0435\u043d\u0438\u0438 \u0440\u0435\u0437\u0443\u043b\u044c\u0442\u0430\u0442\u043e\u0432 \u043e\u043f\u0440\u0435\u0434\u0435\u043b\u0435\u043d\u0438\u044f \u043a\u0430\u0434\u0430\u0441\u0442\u0440\u043e\u0432\u043e\u0439 \u0441\u0442\u043e\u0438\u043c\u043e\u0441\u0442\u0438, \u043f\u043e\u043b\u0443\u0447\u0435\u043d\u043d\u044b\u0445 \u0432 \u0441\u043e\u043e\u0442\u0432\u0435\u0442\u0441\u0442\u0432\u0438\u0438 \u0441 \u043f\u043e\u043b\u043e\u0436\u0435\u043d\u0438\u044f\u043c\u0438 \u0417\u0430\u043a\u043e\u043d\u0430 237-\u0424\u0417\n\n\n\n\n\n\n\n\n\n", "land_record_area": 188100, "land_record_category_type": "\u0417\u0435\u043c\u043b\u0438 \u0441\u0435\u043b\u044c\u0441\u043a\u043e\u0445\u043e\u0437\u044f\u0439\u0441\u0442\u0432\u0435\u043d\u043d\u043e\u0433\u043e \u043d\u0430\u0437\u043d\u0430\u0447\u0435\u043d\u0438\u044f", "land_record_reg_date": "2009-05-20", "land_record_subtype": "\u0417\u0435\u043c\u043b\u0435\u043f\u043e\u043b\u044c\u0437\u043e\u0432\u0430\u043d\u0438\u0435", "land_record_type": "\u0417\u0435\u043c\u0435\u043b\u044c\u043d\u044b\u0439 \u0443\u0447\u0430\u0441\u0442\u043e\u043a", "ownership_type": "\u0427\u0430\u0441\u0442\u043d\u0430\u044f", "permitted_use_established_by_document": "\u0434\u043b\u044f \u0441\u0435\u043b\u044c\u0441\u043a\u043e\u0445\u043e\u0437\u044f\u0439\u0441\u0442\u0432\u0435\u043d\u043d\u043e\u0433\u043e \u043f\u0440\u043e\u0438\u0437\u0432\u043e\u0434\u0441\u0442\u0432\u0430", "previously_posted": "\u0423\u0447\u0442\u0435\u043d\u043d\u044b\u0439", "quarter_cad_number": "39:05:030616", "readable_address": "\u041c\u0435\u0441\u0442\u043e\u043f\u043e\u043b\u043e\u0436\u0435\u043d\u0438\u0435 \u0443\u0441\u0442\u0430\u043d\u043e\u0432\u043b\u0435\u043d\u043e \u043e\u0442\u043d\u043e\u0441\u0438\u0442\u0435\u043b\u044c\u043d\u043e \u043e\u0440\u0438\u0435\u043d\u0442\u0438\u0440\u0430, \u0440\u0430\u0441\u043f\u043e\u043b\u043e\u0436\u0435\u043d\u043d\u043e\u0433\u043e \u0437\u0430 \u043f\u0440\u0435\u0434\u0435\u043b\u0430\u043c\u0438 \u0443\u0447\u0430\u0441\u0442\u043a\u0430. \u041e\u0440\u0438\u0435\u043d\u0442\u0438\u0440 \u043d\u0430\u0441\u0435\u043b\u0435\u043d\u043d\u044b\u0439 \u043f\u0443\u043d\u043a\u0442. \u041f\u043e\u0447\u0442\u043e\u0432\u044b\u0439 \u0430\u0434\u0440\u0435\u0441 \u043e\u0440\u0438\u0435\u043d\u0442\u0438\u0440\u0430: \u041a\u0430\u043b\u0438\u043d\u0438\u043d\u0433\u0440\u0430\u0434\u0441\u043a\u0430\u044f \u043e\u0431\u043b\u0430\u0441\u0442\u044c, \u0417\u0435\u043b\u0435\u043d\u043e\u0433\u0440\u0430\u0434\u0441\u043a\u0438\u0439 \u0440\u0430\u0439\u043e\u043d, \u0440\u0430\u0441\u043f\u043e\u043b\u043e\u0436\u0435\u043d \u044e\u0433\u043e-\u0437\u0430\u043f\u0430\u0434\u043d\u0435\u0435 \u043f. \u041c\u043e\u0440\u043e\u0437\u043e\u0432\u043a\u0430, \u0441 \u0437\u0430\u043f\u0430\u0434\u0430 \u043f\u0440\u0438\u043c\u044b\u043a\u0430\u0435\u0442 \u043a \u0436\u0435\u043b\u0435\u0437\u043d\u043e\u0439 \u0434\u043e\u0440\u043e\u0433\u0435 \u0411\u0430\u043b\u0442\u0438\u0439\u0441\u043a-\u042f\u043d\u0442\u0430\u0440\u043d\u044b\u0439, \u0441 \u044e\u0433\u0430 \u043f. \u041f\u0443\u0442\u0438\u043b\u043e\u0432\u043e.", "right_type": "\u041e\u0431\u0449\u0430\u044f \u0434\u043e\u043b\u0435\u0432\u0430\u044f \u0441\u043e\u0431\u0441\u0442\u0432\u0435\u043d\u043d\u043e\u0441\u0442\u044c", "specified_area": 188100, "status": "\u0423\u0447\u0442\u0435\u043d\u043d\u044b\u0439"}, "subcategory": 8, "systemInfo": {"inserted": "2023-11-07T23:36:34.661329", "insertedBy": "7EF5CD0B-AC08-4097-AF2B-07CD85992A79", "updated": "2025-05-14T11:15:51.046231", "updatedBy": "22F23413-4218-4EB5-B8D3-D2646E3C2FAE"}}}