{"id": 86457012, "type": "Feature", "geometry": {"type": "Polygon", "coordinates": [[[20.02818204357816, 54.813414994464246], [20.028923344207648, 54.813041050073544], [20.03513884728611, 54.81669263286389], [20.034740006889677, 54.81694492373402], [20.034521470851338, 54.817139393483785], [20.02818204357816, 54.813414994464246]], [[20.034847840426618, 54.81657505306523], [20.034901376162736, 54.816601191899395], [20.034931346380215, 54.81658051888059], [20.034877804370947, 54.81655455966596], [20.034847840426618, 54.81657505306523]]], "crs": {"type": "name", "properties": {"name": "EPSG:3857"}}}, "properties": {"cadastralDistrictsCode": 39, "category": 36368, "categoryName": "\u0417\u0435\u043c\u0435\u043b\u044c\u043d\u044b\u0435 \u0443\u0447\u0430\u0441\u0442\u043a\u0438 \u0415\u0413\u0420\u041d", "descr": "39:05:030616:142", "externalKey": "39:05:030616:142", "interactionId": 86412983, "label": "39:05:030616:142", "options": {"area": null, "cad_num": "39:05:030616:142", "cost_application_date": "2023-01-01", "cost_approvement_date": "", "cost_determination_date": "2022-01-01", "cost_index": 5.4, "cost_registration_date": "2022-12-23", "cost_value": 196036.2, "declared_area": null, "determination_couse": "\u0410\u043a\u0442 \u043e\u0431 \u0443\u0442\u0432\u0435\u0440\u0436\u0434\u0435\u043d\u0438\u0438 \u0440\u0435\u0437\u0443\u043b\u044c\u0442\u0430\u0442\u043e\u0432 \u043e\u043f\u0440\u0435\u0434\u0435\u043b\u0435\u043d\u0438\u044f \u043a\u0430\u0434\u0430\u0441\u0442\u0440\u043e\u0432\u043e\u0439 \u0441\u0442\u043e\u0438\u043c\u043e\u0441\u0442\u0438, \u043f\u043e\u043b\u0443\u0447\u0435\u043d\u043d\u044b\u0445 \u0432 \u0441\u043e\u043e\u0442\u0432\u0435\u0442\u0441\u0442\u0432\u0438\u0438 \u0441 \u043f\u043e\u043b\u043e\u0436\u0435\u043d\u0438\u044f\u043c\u0438 \u0417\u0430\u043a\u043e\u043d\u0430 237-\u0424\u0417\n\n\n\n\n\n\n", "land_record_category_type": "\u0417\u0435\u043c\u043b\u0438 \u0441\u0435\u043b\u044c\u0441\u043a\u043e\u0445\u043e\u0437\u044f\u0439\u0441\u0442\u0432\u0435\u043d\u043d\u043e\u0433\u043e \u043d\u0430\u0437\u043d\u0430\u0447\u0435\u043d\u0438\u044f", "land_record_reg_date": "2011-04-19", "land_record_subtype": "\u0417\u0435\u043c\u043b\u0435\u043f\u043e\u043b\u044c\u0437\u043e\u0432\u0430\u043d\u0438\u0435", "land_record_type": "\u0417\u0435\u043c\u0435\u043b\u044c\u043d\u044b\u0439 \u0443\u0447\u0430\u0441\u0442\u043e\u043a", "ownership_type": null, "permitted_use_established_by_document": "\u0434\u043b\u044f \u043f\u0440\u043e\u0438\u0437\u0432\u043e\u0434\u0441\u0442\u0432\u0430 \u0441\u0435\u043b\u044c\u0441\u043a\u043e\u0445\u043e\u0437\u044f\u0439\u0441\u0442\u0432\u0435\u043d\u043d\u043e\u0439 \u043f\u0440\u043e\u0434\u0443\u043a\u0446\u0438\u0438", "previously_posted": "\u0423\u0447\u0442\u0435\u043d\u043d\u044b\u0439", "quarter_cad_number": "39:05:030616", "readable_address": "\u041c\u0435\u0441\u0442\u043e\u043f\u043e\u043b\u043e\u0436\u0435\u043d\u0438\u0435 \u0443\u0441\u0442\u0430\u043d\u043e\u0432\u043b\u0435\u043d\u043e \u043e\u0442\u043d\u043e\u0441\u0438\u0442\u0435\u043b\u044c\u043d\u043e \u043e\u0440\u0438\u0435\u043d\u0442\u0438\u0440\u0430, \u0440\u0430\u0441\u043f\u043e\u043b\u043e\u0436\u0435\u043d\u043d\u043e\u0433\u043e \u0432 \u0433\u0440\u0430\u043d\u0438\u0446\u0430\u0445 \u0443\u0447\u0430\u0441\u0442\u043a\u0430. \u041f\u043e\u0447\u0442\u043e\u0432\u044b\u0439 \u0430\u0434\u0440\u0435\u0441 \u043e\u0440\u0438\u0435\u043d\u0442\u0438\u0440\u0430: \u041a\u0430\u043b\u0438\u043d\u0438\u043d\u0433\u0440\u0430\u0434\u0441\u043a\u0430\u044f \u043e\u0431\u043b., \u0440-\u043d \u0417\u0435\u043b\u0435\u043d\u043e\u0433\u0440\u0430\u0434\u0441\u043a\u0438\u0439, \u041a\u0440\u0430\u0441\u043d\u043e\u0442\u043e\u0440\u043e\u0432\u0441\u043a\u043e\u0435 \u0441/\u043f, \u044e\u0436\u043d\u0435\u0435 \u043f. \u041c\u043e\u0440\u043e\u0437\u043e\u0432\u043a\u0430 \u0432\u0434\u043e\u043b\u044c \u0434\u043e\u0440\u043e\u0433\u0438 \u041f\u0440\u0438\u043c\u043e\u0440\u0441\u043a-\u0417\u0435\u043b\u0435\u043d\u043e\u0433\u0440\u0430\u0434\u0441\u043a; \u044e\u0433\u043e-\u0437\u0430\u043f\u0430\u0434\u043d\u0435\u0435 \u043f. \u0420\u0443\u0441\u0441\u043a\u043e\u0435; \u0437\u0430\u043f\u0430\u0434\u043d\u0435\u0435 \u043f. \u041c\u043e\u0440\u043e\u0437\u043e\u0432\u043a\u0430, \u0437\u0430 \u0436\u0435\u043b\u0435\u0437\u043d\u043e\u0439 \u0434\u043e\u0440\u043e\u0433\u043e\u0439.", "specified_area": 36303, "status": "\u0423\u0447\u0442\u0435\u043d\u043d\u044b\u0439"}, "subcategory": 8, "systemInfo": {"inserted": "2023-09-29T12:42:49.922317", "insertedBy": "00000000-0000-0000-0000-000000000001", "updated": "2025-05-14T03:21:38.237059", "updatedBy": "22F23413-4218-4EB5-B8D3-D2646E3C2FAE"}}}