{"id": 103828319, "type": "Feature", "geometry": {"type": "Polygon", "coordinates": [[[20.028046994772538, 54.80866914211986], [20.027774171307726, 54.80845679694197], [20.02819167522504, 54.80828308807335], [20.028484184313292, 54.80849296774474], [20.028046994772538, 54.80866914211986]]], "crs": {"type": "name", "properties": {"name": "EPSG:3857"}}}, "properties": {"cadastralDistrictsCode": 39, "category": 36368, "categoryName": "\u0417\u0435\u043c\u0435\u043b\u044c\u043d\u044b\u0435 \u0443\u0447\u0430\u0441\u0442\u043a\u0438 \u0415\u0413\u0420\u041d", "descr": "39:05:030616:111", "externalKey": "39:05:030616:111", "interactionId": 103762627, "label": "39:05:030616:111", "options": {"area": null, "cad_num": "39:05:030616:111", "cost_application_date": "2023-01-01", "cost_approvement_date": "", "cost_determination_date": "2022-01-01", "cost_index": 628.17, "cost_registration_date": "2022-12-30", "cost_value": 628170, "declared_area": null, "determination_couse": "\u0410\u043a\u0442 \u043e\u0431 \u0443\u0442\u0432\u0435\u0440\u0436\u0434\u0435\u043d\u0438\u0438 \u0440\u0435\u0437\u0443\u043b\u044c\u0442\u0430\u0442\u043e\u0432 \u043e\u043f\u0440\u0435\u0434\u0435\u043b\u0435\u043d\u0438\u044f \u043a\u0430\u0434\u0430\u0441\u0442\u0440\u043e\u0432\u043e\u0439 \u0441\u0442\u043e\u0438\u043c\u043e\u0441\u0442\u0438, \u043f\u043e\u043b\u0443\u0447\u0435\u043d\u043d\u044b\u0445 \u0432 \u0441\u043e\u043e\u0442\u0432\u0435\u0442\u0441\u0442\u0432\u0438\u0438 \u0441 \u043f\u043e\u043b\u043e\u0436\u0435\u043d\u0438\u044f\u043c\u0438 \u0417\u0430\u043a\u043e\u043d\u0430 237-\u0424\u0417\n\n\n\n\n\n\n\n\n\n", "land_record_area": 1000, "land_record_category_type": "\u0417\u0435\u043c\u043b\u0438 \u043d\u0430\u0441\u0435\u043b\u0435\u043d\u043d\u044b\u0445 \u043f\u0443\u043d\u043a\u0442\u043e\u0432", "land_record_reg_date": "2001-10-25", "land_record_subtype": "\u0417\u0435\u043c\u043b\u0435\u043f\u043e\u043b\u044c\u0437\u043e\u0432\u0430\u043d\u0438\u0435", "land_record_type": "\u0417\u0435\u043c\u0435\u043b\u044c\u043d\u044b\u0439 \u0443\u0447\u0430\u0441\u0442\u043e\u043a", "ownership_type": "\u0427\u0430\u0441\u0442\u043d\u0430\u044f", "permitted_use_established_by_document": "\u0434\u043b\u044f \u0432\u0435\u0434\u0435\u043d\u0438\u044f \u043b\u0438\u0447\u043d\u043e\u0433\u043e \u043f\u043e\u0434\u0441\u043e\u0431\u043d\u043e\u0433\u043e \u0445\u043e\u0437\u044f\u0439\u0441\u0442\u0432\u0430", "previously_posted": "\u0420\u0430\u043d\u0435\u0435 \u0443\u0447\u0442\u0435\u043d\u043d\u044b\u0439", "quarter_cad_number": "39:05:030616", "readable_address": "\u041c\u0435\u0441\u0442\u043e\u043f\u043e\u043b\u043e\u0436\u0435\u043d\u0438\u0435 \u0443\u0441\u0442\u0430\u043d\u043e\u0432\u043b\u0435\u043d\u043e \u043e\u0442\u043d\u043e\u0441\u0438\u0442\u0435\u043b\u044c\u043d\u043e \u043e\u0440\u0438\u0435\u043d\u0442\u0438\u0440\u0430, \u0440\u0430\u0441\u043f\u043e\u043b\u043e\u0436\u0435\u043d\u043d\u043e\u0433\u043e \u0432 \u0433\u0440\u0430\u043d\u0438\u0446\u0430\u0445 \u0443\u0447\u0430\u0441\u0442\u043a\u0430. \u041f\u043e\u0447\u0442\u043e\u0432\u044b\u0439 \u0430\u0434\u0440\u0435\u0441 \u043e\u0440\u0438\u0435\u043d\u0442\u0438\u0440\u0430: \u041a\u0430\u043b\u0438\u043d\u0438\u043d\u0433\u0440\u0430\u0434\u0441\u043a\u0430\u044f \u043e\u0431\u043b\u0430\u0441\u0442\u044c, \u0417\u0435\u043b\u0435\u043d\u043e\u0433\u0440\u0430\u0434\u0441\u043a\u0438\u0439 \u0440\u0430\u0439\u043e\u043d,  \u041a\u0440\u0430\u0441\u043d\u043e\u0442\u043e\u0440\u043e\u0432\u0441\u043a\u043e\u0435 \u0441/\u043f, \u043f\u043e\u0441. \u041f\u0443\u0442\u0438\u043b\u043e\u0432\u043e.", "right_type": "\u0421\u043e\u0431\u0441\u0442\u0432\u0435\u043d\u043d\u043e\u0441\u0442\u044c", "specified_area": 1000, "status": "\u0420\u0430\u043d\u0435\u0435 \u0443\u0447\u0442\u0435\u043d\u043d\u044b\u0439"}, "subcategory": 5, "systemInfo": {"inserted": "2023-11-08T01:04:31.875567", "insertedBy": "7EF5CD0B-AC08-4097-AF2B-07CD85992A79", "updated": "2025-05-14T11:24:30.419623", "updatedBy": "22F23413-4218-4EB5-B8D3-D2646E3C2FAE"}}}